NAVSTAR 77 (USA 289)    
1 43873U 18109A   24130.43852833  .00000026  00000+0  00000+0 0  9996
2 43873  55.2826 122.5579 0028702 195.9294 336.0948  2.00554176 39650
